{"type": "FeatureCollection", "features": [ {"type": "Feature", "properties": {"norad_id": 34738, "name": "COSMOS 2251 DEB", "group": "cosmos-2251-debris", "lat": 14.4194579055598, "lon": -58.00929714000063, "alt_km": 747.3517567633298, "timestamp": "2025-12-21T20:41:08.350761+00:00", "meta": {"OBJECT_NAME": "COSMOS 2251 DEB", "OBJECT_ID": "1993-036ZG", "EPOCH": "2025-12-20T12:59:02.140800", "MEAN_MOTION": 14.46318559, "ECCENTRICITY": 0.0047533, "INCLINATION": 74.0152, "RA_OF_ASC_NODE": 128.6853, "ARG_OF_PERICENTER": 273.5184, "MEAN_ANOMALY": 217.0479, "EPHEMERIS_TYPE": 0, "CLASSIFICATION_TYPE": "U", "NORAD_CAT_ID": 34738, "ELEMENT_SET_NO": 999, "REV_AT_EPOCH": 87971, "BSTAR": 0.00021891, "MEAN_MOTION_DOT": 7.68e-06, "MEAN_MOTION_DDOT": 0}, "tle": {"line1": "1 34738U 93036ZG  25354.54099700  .00000768  00000+0  21891-3 0  9993", "line2": "2 34738  74.0152 128.6853 0047533 273.5184 217.0479 14.46318559879719"}}, "geometry": {"type": "Point", "coordinates": [-58.00929714000063, 14.4194579055598]}}, {"type": "Feature", "properties": {"norad_id": 34750, "name": "COSMOS 2251 DEB", "group": "cosmos-2251-debris", "lat": 72.80204360234545, "lon": -62.627476402728604, "alt_km": 659.7888878389831, "timestamp": "2025-12-21T20:41:08.350769+00:00", "meta": {"OBJECT_NAME": "COSMOS 2251 DEB", "OBJECT_ID": "1993-036ZU", "EPOCH": "2025-12-21T12:09:31.852224", "MEAN_MOTION": 14.613988, "ECCENTRICITY": 0.003846, "INCLINATION": 74.1061, "RA_OF_ASC_NODE": 185.0597, "ARG_OF_PERICENTER": 135.1733, "MEAN_ANOMALY": 253.3274, "EPHEMERIS_TYPE": 0, "CLASSIFICATION_TYPE": "U", "NORAD_CAT_ID": 34750, "ELEMENT_SET_NO": 999, "REV_AT_EPOCH": 88359, "BSTAR": 0.00079183855, "MEAN_MOTION_DOT": 3.932e-05, "MEAN_MOTION_DDOT": 0}, "tle": {"line1": "1 34750U 93036ZU  25355.50661866  .00003932  00000+0  79184-3 0  9996", "line2": "2 34750  74.1061 185.0597 0038460 135.1733 253.3274 14.61398800883598"}}, "geometry": {"type": "Point", "coordinates": [-62.627476402728604, 72.80204360234545]}}, {"type": "Feature", "properties": {"norad_id": 34752, "name": "COSMOS 2251 DEB", "group": "cosmos-2251-debris", "lat": 61.46092076202175, "lon": 13.85040738000785, "alt_km": 535.4100138452541, "timestamp": "2025-12-21T20:41:08.350778+00:00", "meta": {"OBJECT_NAME": "COSMOS 2251 DEB", "OBJECT_ID": "1993-036ZW", "EPOCH": "2025-12-21T09:11:20.743008", "MEAN_MOTION": 15.00105558, "ECCENTRICITY": 0.00475006, "INCLINATION": 74.0131, "RA_OF_ASC_NODE": 343.0108, "ARG_OF_PERICENTER": 108.6219, "MEAN_ANOMALY": 252.0135, "EPHEMERIS_TYPE": 0, "CLASSIFICATION_TYPE": "U", "NORAD_CAT_ID": 34752, "ELEMENT_SET_NO": 999, "REV_AT_EPOCH": 89979, "BSTAR": 0.00079721922, "MEAN_MOTION_DOT": 0.00010156, "MEAN_MOTION_DDOT": 0}, "tle": {"line1": "1 34752U 93036ZW  25355.38287897  .00010156  00000+0  79722-3 0  9996", "line2": "2 34752  74.0131 343.0108 0047500 108.6219 252.0135 15.00105558899791"}}, "geometry": {"type": "Point", "coordinates": [13.85040738000785, 61.46092076202175]}}, {"type": "Feature", "properties": {"norad_id": 34754, "name": "COSMOS 2251 DEB", "group": "cosmos-2251-debris", "lat": -61.84981603970731, "lon": 63.086852749214145, "alt_km": 759.4278535293424, "timestamp": "2025-12-21T20:41:08.350787+00:00", "meta": {"OBJECT_NAME": "COSMOS 2251 DEB", "OBJECT_ID": "1993-036ZY", "EPOCH": "2025-12-21T08:42:32.586624", "MEAN_MOTION": 14.40492818, "ECCENTRICITY": 0.00298933, "INCLINATION": 74.0294, "RA_OF_ASC_NODE": 211.6518, "ARG_OF_PERICENTER": 326.1547, "MEAN_ANOMALY": 213.8575, "EPHEMERIS_TYPE": 0, "CLASSIFICATION_TYPE": "U", "NORAD_CAT_ID": 34754, "ELEMENT_SET_NO": 999, "REV_AT_EPOCH": 88257, "BSTAR": 0.00016124997, "MEAN_MOTION_DOT": 4.89e-06, "MEAN_MOTION_DDOT": 0}, "tle": {"line1": "1 34754U 93036ZY  25355.36287716  .00000489  00000+0  16125-3 0  9992", "line2": "2 34754  74.0294 211.6518 0029893 326.1547 213.8575 14.40492818882576"}}, "geometry": {"type": "Point", "coordinates": [63.086852749214145, -61.84981603970731]}}, {"type": "Feature", "properties": {"norad_id": 34755, "name": "COSMOS 2251 DEB", "group": "cosmos-2251-debris", "lat": -68.72156494872927, "lon": -132.39718463035047, "alt_km": 776.8206800947837, "timestamp": "2025-12-21T20:41:08.350796+00:00", "meta": {"OBJECT_NAME": "COSMOS 2251 DEB", "OBJECT_ID": "1993-036ZZ", "EPOCH": "2025-12-20T18:30:29.240064", "MEAN_MOTION": 13.50572591, "ECCENTRICITY": 0.04081275, "INCLINATION": 73.9255, "RA_OF_ASC_NODE": 277.1155, "ARG_OF_PERICENTER": 295.5233, "MEAN_ANOMALY": 88.1239, "EPHEMERIS_TYPE": 0, "CLASSIFICATION_TYPE": "U", "NORAD_CAT_ID": 34755, "ELEMENT_SET_NO": 999, "REV_AT_EPOCH": 82632, "BSTAR": 0.00057435404, "MEAN_MOTION_DOT": 5.95e-06, "MEAN_MOTION_DDOT": 0}, "tle": {"line1": "1 34755U 93036ZZ  25354.77117176  .00000595  00000+0  57435-3 0  9996", "line2": "2 34755  73.9255 277.1155 0408127 295.5233  88.1239 13.50572591826326"}}, "geometry": {"type": "Point", "coordinates": [-132.39718463035047, -68.72156494872927]}}, {"type": "Feature", "properties": {"norad_id": 34756, "name": "COSMOS 2251 DEB", "group": "cosmos-2251-debris", "lat": 20.688559019068435, "lon": 95.58737855020276, "alt_km": 868.974910509035, "timestamp": "2025-12-21T20:41:08.350805+00:00", "meta": {"OBJECT_NAME": "COSMOS 2251 DEB", "OBJECT_ID": "1993-036AAA", "EPOCH": "2025-12-21T06:32:15.961344", "MEAN_MOTION": 13.67263251, "ECCENTRICITY": 0.03456362, "INCLINATION": 74.0031, "RA_OF_ASC_NODE": 90.3374, "ARG_OF_PERICENTER": 324.3152, "MEAN_ANOMALY": 33.529, "EPHEMERIS_TYPE": 0, "CLASSIFICATION_TYPE": "U", "NORAD_CAT_ID": 34756, "ELEMENT_SET_NO": 999, "REV_AT_EPOCH": 83538, "BSTAR": 0.00089699962, "MEAN_MOTION_DOT": 1.115e-05, "MEAN_MOTION_DDOT": 0}, "tle": {"line1": "1 34756U 93036AAA 25355.27240696  .00001115  00000+0  89700-3 0  9996", "line2": "2 34756  74.0031  90.3374 0345636 324.3152  33.5290 13.67263251835380"}}, "geometry": {"type": "Point", "coordinates": [95.58737855020276, 20.688559019068435]}}, {"type": "Feature", "properties": {"norad_id": 34758, "name": "COSMOS 2251 DEB", "group": "cosmos-2251-debris", "lat": -12.02025002139952, "lon": 108.29402507595145, "alt_km": 1278.123682570521, "timestamp": "2025-12-21T20:41:08.350814+00:00", "meta": {"OBJECT_NAME": "COSMOS 2251 DEB", "OBJECT_ID": "1993-036AAC", "EPOCH": "2025-12-21T02:05:27.269088", "MEAN_MOTION": 13.58097876, "ECCENTRICITY": 0.03820265, "INCLINATION": 74.1076, "RA_OF_ASC_NODE": 286.0629, "ARG_OF_PERICENTER": 47.8221, "MEAN_ANOMALY": 315.467, "EPHEMERIS_TYPE": 0, "CLASSIFICATION_TYPE": "U", "NORAD_CAT_ID": 34758, "ELEMENT_SET_NO": 999, "REV_AT_EPOCH": 83023, "BSTAR": 0.0013759148, "MEAN_MOTION_DOT": 1.585e-05, "MEAN_MOTION_DDOT": 0}, "tle": {"line1": "1 34758U 93036AAC 25355.08712117  .00001585  00000+0  13759-2 0  9990", "line2": "2 34758  74.1076 286.0629 0382026  47.8221 315.4670 13.58097876830238"}}, "geometry": {"type": "Point", "coordinates": [108.29402507595145, -12.02025002139952]}}, {"type": "Feature", "properties": {"norad_id": 34760, "name": "COSMOS 2251 DEB", "group": "cosmos-2251-debris", "lat": -58.77430307673901, "lon": -102.03953021434914, "alt_km": 778.7623238256956, "timestamp": "2025-12-21T20:41:08.350824+00:00", "meta": {"OBJECT_NAME": "COSMOS 2251 DEB", "OBJECT_ID": "1993-036AAE", "EPOCH": "2025-12-21T02:27:21.793248", "MEAN_MOTION": 14.19589207, "ECCENTRICITY": 0.00971621, "INCLINATION": 74.0634, "RA_OF_ASC_NODE": 287.4354, "ARG_OF_PERICENTER": 337.728, "MEAN_ANOMALY": 39.9901, "EPHEMERIS_TYPE": 0, "CLASSIFICATION_TYPE": "U", "NORAD_CAT_ID": 34760, "ELEMENT_SET_NO": 999, "REV_AT_EPOCH": 86807, "BSTAR": 0.00035110711, "MEAN_MOTION_DOT": 7.51e-06, "MEAN_MOTION_DDOT": 0}, "tle": {"line1": "1 34760U 93036AAE 25355.10233557  .00000751  00000+0  35111-3 0  9993", "line2": "2 34760  74.0634 287.4354 0097162 337.7280  39.9901 14.19589207868070"}}, "geometry": {"type": "Point", "coordinates": [-102.03953021434914, -58.77430307673901]}}, {"type": "Feature", "properties": {"norad_id": 34761, "name": "COSMOS 2251 DEB", "group": "cosmos-2251-debris", "lat": 68.31964899162348, "lon": 119.8935718770107, "alt_km": 756.5226380401127, "timestamp": "2025-12-21T20:41:08.350832+00:00", "meta": {"OBJECT_NAME": "COSMOS 2251 DEB", "OBJECT_ID": "1993-036AAF", "EPOCH": "2025-12-20T15:49:12.081504", "MEAN_MOTION": 14.3807453, "ECCENTRICITY": 0.00368471, "INCLINATION": 74.0284, "RA_OF_ASC_NODE": 348.1964, "ARG_OF_PERICENTER": 20.0279, "MEAN_ANOMALY": 340.2311, "EPHEMERIS_TYPE": 0, "CLASSIFICATION_TYPE": "U", "NORAD_CAT_ID": 34761, "ELEMENT_SET_NO": 999, "REV_AT_EPOCH": 87763, "BSTAR": 0.00043327505, "MEAN_MOTION_DOT": 1.297e-05, "MEAN_MOTION_DDOT": 0}, "tle": {"line1": "1 34761U 93036AAF 25354.65916761  .00001297  00000+0  43328-3 0  9993", "line2": "2 34761  74.0284 348.1964 0036847  20.0279 340.2311 14.38074530877631"}}, "geometry": {"type": "Point", "coordinates": [119.8935718770107, 68.31964899162348]}}, {"type": "Feature", "properties": {"norad_id": 34784, "name": "COSMOS 2251 DEB", "group": "cosmos-2251-debris", "lat": 0.6626191911347606, "lon": -52.91424329070059, "alt_km": 706.4284565598318, "timestamp": "2025-12-21T20:41:08.350841+00:00", "meta": {"OBJECT_NAME": "COSMOS 2251 DEB", "OBJECT_ID": "1993-036AAM", "EPOCH": "2025-12-19T22:39:42.145920", "MEAN_MOTION": 14.60808995, "ECCENTRICITY": 0.0049222, "INCLINATION": 74.0073, "RA_OF_ASC_NODE": 310.5647, "ARG_OF_PERICENTER": 117.7322, "MEAN_ANOMALY": 242.885, "EPHEMERIS_TYPE": 0, "CLASSIFICATION_TYPE": "U", "NORAD_CAT_ID": 34784, "ELEMENT_SET_NO": 999, "REV_AT_EPOCH": 88640, "BSTAR": 0.00031795, "MEAN_MOTION_DOT": 1.549e-05, "MEAN_MOTION_DDOT": 0}, "tle": {"line1": "1 34784U 93036AAM 25353.94423780  .00001549  00000+0  31795-3 0  9998", "line2": "2 34784  74.0073 310.5647 0049222 117.7322 242.8850 14.60808995886402"}}, "geometry": {"type": "Point", "coordinates": [-52.91424329070059, 0.6626191911347606]}}]}